{
  "norad_id": 63186,
  "name": "STARLINK-11646 [DTC]",
  "history": [
    {
      "epoch": "2026-03-28T16:35:23.720928Z",
      "apogee_km": 358.24491344890885,
      "perigee_km": 354.2018728432795,
      "latitude_deg": 1.5916897393780452e-05,
      "longitude_deg": 130.04472002029286,
      "height_km": 355.83432404617764,
      "semi_major_axis_km": 6734.360393146094,
      "eccentricity": 0.00030018,
      "inclination_deg": 43.0022,
      "raan_deg": 205.0016,
      "arg_perigee_deg": 274.623,
      "mean_anomaly_deg": 85.4295,
      "mean_motion_rev_day": 15.70935054
    },
    {
      "epoch": "2026-03-29T00:13:12.842688Z",
      "apogee_km": 357.00130786484624,
      "perigee_km": 355.6665357281463,
      "latitude_deg": -1.1356729777722805e-06,
      "longitude_deg": 13.357861959623317,
      "height_km": 355.55148029773574,
      "semi_major_axis_km": 6734.470921796496,
      "eccentricity": 9.91e-05,
      "inclination_deg": 43.0017,
      "raan_deg": 203.0828,
      "arg_perigee_deg": 34.002,
      "mean_anomaly_deg": 326.0911,
      "mean_motion_rev_day": 15.7089638
    },
    {
      "epoch": "2026-03-30T06:44:23.725824Z",
      "apogee_km": 357.0382575543599,
      "perigee_km": 355.57742177973887,
      "latitude_deg": 4.4611791901004275e-05,
      "longitude_deg": -93.35263394968696,
      "height_km": 355.69064353921016,
      "semi_major_axis_km": 6734.444839667049,
      "eccentricity": 0.00010846,
      "inclination_deg": 42.9994,
      "raan_deg": 195.421,
      "arg_perigee_deg": 302.1983,
      "mean_anomaly_deg": 57.878,
      "mean_motion_rev_day": 15.70905506
    },
    {
      "epoch": "2026-03-30T14:22:12.478656Z",
      "apogee_km": 358.41465226853325,
      "perigee_km": 354.52016523104066,
      "latitude_deg": -4.3994072468819844e-05,
      "longitude_deg": 149.96787357759973,
      "height_km": 354.8718185863608,
      "semi_major_axis_km": 6734.604408749787,
      "eccentricity": 0.00028914,
      "inclination_deg": 42.9994,
      "raan_deg": 193.5081,
      "arg_perigee_deg": 314.659,
      "mean_anomaly_deg": 45.4041,
      "mean_motion_rev_day": 15.70849675
    },
    {
      "epoch": "2026-03-30T15:53:45.927168Z",
      "apogee_km": 357.6151375709014,
      "perigee_km": 355.34233945146934,
      "latitude_deg": -7.421120068668408e-06,
      "longitude_deg": 126.63027498674604,
      "height_km": 355.92943193211767,
      "semi_major_axis_km": 6734.615738511186,
      "eccentricity": 0.00016874,
      "inclination_deg": 43.0009,
      "raan_deg": 193.1225,
      "arg_perigee_deg": 286.4646,
      "mean_anomaly_deg": 73.6036,
      "mean_motion_rev_day": 15.70845711
    },
    {
      "epoch": "2026-03-31T13:15:36.103680Z",
      "apogee_km": 357.66747536446746,
      "perigee_km": 355.41337882961943,
      "latitude_deg": 4.7815679649383514e-05,
      "longitude_deg": 159.9257804965675,
      "height_km": 357.0644754211404,
      "semi_major_axis_km": 6734.677427097044,
      "eccentricity": 0.00016735,
      "inclination_deg": 43.002,
      "raan_deg": 187.7544,
      "arg_perigee_deg": 132.0012,
      "mean_anomaly_deg": 228.0999,
      "mean_motion_rev_day": 15.70824128
    },
    {
      "epoch": "2026-04-01T10:37:27.432768Z",
      "apogee_km": 358.8522673161224,
      "perigee_km": 352.7042027065572,
      "latitude_deg": -1.526198193810382e-05,
      "longitude_deg": -166.78065569029138,
      "height_km": 354.0805207139155,
      "semi_major_axis_km": 6733.915235011339,
      "eccentricity": 0.0004565,
      "inclination_deg": 43.0008,
      "raan_deg": 182.3893,
      "arg_perigee_deg": 298.6136,
      "mean_anomaly_deg": 61.4272,
      "mean_motion_rev_day": 15.71090831
    },
    {
      "epoch": "2026-04-02T14:05:29.702976Z",
      "apogee_km": 357.30928531930294,
      "perigee_km": 355.32262169801834,
      "latitude_deg": 1.6519117392301086e-05,
      "longitude_deg": 133.18247827993324,
      "height_km": 355.97061315314875,
      "semi_major_axis_km": 6734.45295350866,
      "eccentricity": 0.0001475,
      "inclination_deg": 43.0,
      "raan_deg": 175.4899,
      "arg_perigee_deg": 276.8137,
      "mean_anomaly_deg": 83.2563,
      "mean_motion_rev_day": 15.70902667
    },
    {
      "epoch": "2026-04-04T13:23:51.325152Z",
      "apogee_km": 357.2937608224938,
      "perigee_km": 355.0014103495614,
      "latitude_deg": 2.8005316096595466e-05,
      "longitude_deg": 129.77050917245657,
      "height_km": 355.92679794008853,
      "semi_major_axis_km": 6734.284585586028,
      "eccentricity": 0.0001702,
      "inclination_deg": 42.9993,
      "raan_deg": 163.6108,
      "arg_perigee_deg": 269.6693,
      "mean_anomaly_deg": 90.398,
      "mean_motion_rev_day": 15.7096158
    },
    {
      "epoch": "2026-04-05T10:45:42.402816Z",
      "apogee_km": 356.9330637345183,
      "perigee_km": 355.96974820892683,
      "latitude_deg": -1.0326650209039778e-05,
      "longitude_deg": 163.06354743916395,
      "height_km": 356.380368477201,
      "semi_major_axis_km": 6734.588405971722,
      "eccentricity": 7.152e-05,
      "inclination_deg": 42.9992,
      "raan_deg": 158.2441,
      "arg_perigee_deg": 250.9428,
      "mean_anomaly_deg": 109.1362,
      "mean_motion_rev_day": 15.70855274
    },
    {
      "epoch": "2026-04-06T05:04:25.139712Z",
      "apogee_km": 358.8065547592287,
      "perigee_km": 354.28259975652145,
      "latitude_deg": -4.9548776435493726e-05,
      "longitude_deg": -116.96730813404287,
      "height_km": 355.46841480380897,
      "semi_major_axis_km": 6734.681577257875,
      "eccentricity": 0.00033587,
      "inclination_deg": 42.9986,
      "raan_deg": 153.6434,
      "arg_perigee_deg": 292.0671,
      "mean_anomaly_deg": 67.9839,
      "mean_motion_rev_day": 15.70822676
    },
    {
      "epoch": "2026-04-07T13:07:10.253280Z",
      "apogee_km": 357.3825769618179,
      "perigee_km": 355.4268660458929,
      "latitude_deg": 4.1402359621422994e-05,
      "longitude_deg": 112.98233518472253,
      "height_km": 356.06184559249004,
      "semi_major_axis_km": 6734.541721503855,
      "eccentricity": 0.0001452,
      "inclination_deg": 43.0024,
      "raan_deg": 145.597,
      "arg_perigee_deg": 276.7916,
      "mean_anomaly_deg": 83.2787,
      "mean_motion_rev_day": 15.70871608
    },
    {
      "epoch": "2026-04-07T13:07:10.254144Z",
      "apogee_km": 357.38230758014834,
      "perigee_km": 355.42713542756246,
      "latitude_deg": 3.826659605402342e-05,
      "longitude_deg": 112.98232823135547,
      "height_km": 356.0618774452904,
      "semi_major_axis_km": 6734.541721503855,
      "eccentricity": 0.00014516,
      "inclination_deg": 43.0024,
      "raan_deg": 145.597,
      "arg_perigee_deg": 276.7916,
      "mean_anomaly_deg": 83.2787,
      "mean_motion_rev_day": 15.70871608
    },
    {
      "epoch": "2026-04-09T12:25:31.054656Z",
      "apogee_km": 357.8234355086779,
      "perigee_km": 354.8508386245758,
      "latitude_deg": -1.904496663870679e-05,
      "longitude_deg": 109.57201313414383,
      "height_km": 355.9458074145387,
      "semi_major_axis_km": 6734.474137066626,
      "eccentricity": 0.0002207,
      "inclination_deg": 43.0028,
      "raan_deg": 133.7162,
      "arg_perigee_deg": 276.3634,
      "mean_anomaly_deg": 83.6982,
      "mean_motion_rev_day": 15.70895255
    },
    {
      "epoch": "2026-04-10T08:15:47.759328Z",
      "apogee_km": 357.800574943235,
      "perigee_km": 354.2718681751385,
      "latitude_deg": -3.779456939250854e-05,
      "longitude_deg": 166.20517149172247,
      "height_km": 357.18252288582335,
      "semi_major_axis_km": 6734.1732215591865,
      "eccentricity": 0.000262,
      "inclination_deg": 43.0001,
      "raan_deg": 128.7337,
      "arg_perigee_deg": 218.8606,
      "mean_anomaly_deg": 141.2073,
      "mean_motion_rev_day": 15.71000549
    },
    {
      "epoch": "2026-04-11T17:50:07.640736Z",
      "apogee_km": 357.0532700845315,
      "perigee_km": 355.77774583952396,
      "latitude_deg": -1.7523145658025048e-05,
      "longitude_deg": 12.810190366334284,
      "height_km": 355.59033389255325,
      "semi_major_axis_km": 6734.552507962027,
      "eccentricity": 9.47e-05,
      "inclination_deg": 43.0011,
      "raan_deg": 120.3003,
      "arg_perigee_deg": 339.371,
      "mean_anomaly_deg": 20.7119,
      "mean_motion_rev_day": 15.70867834
    },
    {
      "epoch": "2026-04-12T12:08:49.980192Z",
      "apogee_km": 357.9274130169897,
      "perigee_km": 354.83061317352895,
      "latitude_deg": 4.593486649827309e-06,
      "longitude_deg": 92.7827615909418,
      "height_km": 356.4988415226108,
      "semi_major_axis_km": 6734.516013095259,
      "eccentricity": 0.00022992,
      "inclination_deg": 43.0033,
      "raan_deg": 115.7013,
      "arg_perigee_deg": 257.0723,
      "mean_anomaly_deg": 102.9888,
      "mean_motion_rev_day": 15.70880603
    },
    {
      "epoch": "2026-04-14T11:27:11.065824Z",
      "apogee_km": 357.31370352837166,
      "perigee_km": 355.42763731019386,
      "latitude_deg": -1.0922191419329943e-05,
      "longitude_deg": 89.37240678643224,
      "height_km": 356.2467325198775,
      "semi_major_axis_km": 6734.5076704192825,
      "eccentricity": 0.00014003,
      "inclination_deg": 43.0017,
      "raan_deg": 103.8216,
      "arg_perigee_deg": 263.7022,
      "mean_anomaly_deg": 96.3686,
      "mean_motion_rev_day": 15.70883522
    },
    {
      "epoch": "2026-04-15T10:20:34.954368Z",
      "apogee_km": 357.23889560335374,
      "perigee_km": 355.53075148802964,
      "latitude_deg": 2.0661399400992654e-05,
      "longitude_deg": 99.33244889181542,
      "height_km": 356.42565728447823,
      "semi_major_axis_km": 6734.521823545691,
      "eccentricity": 0.00012682,
      "inclination_deg": 42.9992,
      "raan_deg": 98.0712,
      "arg_perigee_deg": 251.6635,
      "mean_anomaly_deg": 108.4095,
      "mean_motion_rev_day": 15.7087857
    }
  ]
}